
    {
        "ARG_OF_PERICENTER": 80.1063,
        "BSTAR": 0.00016324028,
        "CLASSIFICATION_TYPE": "U",
        "ECCENTRICITY": 0.00012016,
        "ELEMENT_SET_NO": 999,
        "EPHEMERIS_TYPE": 0,
        "EPOCH": "2026-06-19T15:30:30.034080",
        "INCLINATION": 98.5564,
        "MEAN_ANOMALY": 280.025,
        "MEAN_MOTION": 14.2013435,
        "MEAN_MOTION_DDOT": 0,
        "MEAN_MOTION_DOT": 3.06e-06,
        "NORAD_CAT_ID": 33396,
        "OBJECT_ID": "2008-049A",
        "OBJECT_NAME": "THEOS",
        "RA_OF_ASC_NODE": 227.8505,
        "REV_AT_EPOCH": 91831
    },
    {
        "ARG_OF_PERICENTER": 257.2662,
        "BSTAR": 0.00019683756,
        "CLASSIFICATION_TYPE": "U",
        "ECCENTRICITY": 0.00139718,
        "ELEMENT_SET_NO": 999,
        "EPHEMERIS_TYPE": 0,
        "EPOCH": "2026-06-19T14:23:57.405408",
        "INCLINATION": 97.828,
        "MEAN_ANOMALY": 102.7003,
        "MEAN_MOTION": 15.06965911,
        "MEAN_MOTION_DDOT": 0,
        "MEAN_MOTION_DOT": 2.884e-05,
        "NORAD_CAT_ID": 33412,
        "OBJECT_ID": "2008-054A",
        "OBJECT_NAME": "COSMO-SKYMED 3",
        "RA_OF_ASC_NODE": 29.2098,
        "REV_AT_EPOCH": 95730
    },
    {
        "ARG_OF_PERICENTER": 65.5289,
        "BSTAR": 9.9682024e-05,
        "CLASSIFICATION_TYPE": "U",
        "ECCENTRICITY": 0.00156543,
        "ELEMENT_SET_NO": 999,
        "EPHEMERIS_TYPE": 0,
        "EPOCH": "2026-06-19T12:40:44.897952",
        "INCLINATION": 97.9307,
        "MEAN_ANOMALY": 294.7556,
        "MEAN_MOTION": 14.83203795,
        "MEAN_MOTION_DDOT": 0,
        "MEAN_MOTION_DOT": 7.62e-06,
        "NORAD_CAT_ID": 33446,
        "OBJECT_ID": "2008-061A",
        "OBJECT_NAME": "YAOGAN-4",
        "RA_OF_ASC_NODE": 104.0213,
        "REV_AT_EPOCH": 94601
    },
    {
        "ARG_OF_PERICENTER": 84.938,
        "BSTAR": 0.00016051771,
        "CLASSIFICATION_TYPE": "U",
        "ECCENTRICITY": 0.00015402,
        "ELEMENT_SET_NO": 999,
        "EPHEMERIS_TYPE": 0,
        "EPOCH": "2026-06-19T06:02:52.971936",
        "INCLINATION": 98.0895,
        "MEAN_ANOMALY": 275.2001,
        "MEAN_MOTION": 14.67541949,
        "MEAN_MOTION_DDOT": 0,
        "MEAN_MOTION_DOT": 8.62e-06,
        "NORAD_CAT_ID": 33492,
        "OBJECT_ID": "2009-002A",
        "OBJECT_NAME": "GOSAT (IBUKI)",
        "RA_OF_ASC_NODE": 281.3076,
        "REV_AT_EPOCH": 93176
    },
    {
        "ARG_OF_PERICENTER": 128.178,
        "BSTAR": 9.8723728e-05,
        "CLASSIFICATION_TYPE": "U",
        "ECCENTRICITY": 0.00017622,
        "ELEMENT_SET_NO": 999,
        "EPHEMERIS_TYPE": 0,
        "EPOCH": "2026-06-19T13:26:51.186624",
        "INCLINATION": 97.7407,
        "MEAN_ANOMALY": 231.9589,
        "MEAN_MOTION": 14.75240373,
        "MEAN_MOTION_DDOT": 0,
        "MEAN_MOTION_DOT": 6.2e-06,
        "NORAD_CAT_ID": 35681,
        "OBJECT_ID": "2009-041A",
        "OBJECT_NAME": "DEIMOS-1",
        "RA_OF_ASC_NODE": 327.6845,
        "REV_AT_EPOCH": 90723
    },
    {
        "ARG_OF_PERICENTER": 67.6524,
        "BSTAR": 9.3000659e-05,
        "CLASSIFICATION_TYPE": "U",
        "ECCENTRICITY": 0.00115941,
        "ELEMENT_SET_NO": 999,
        "EPHEMERIS_TYPE": 0,
        "EPOCH": "2026-06-19T07:51:37.851552",
        "INCLINATION": 98.0055,
        "MEAN_ANOMALY": 292.5912,
        "MEAN_MOTION": 14.75125326,
        "MEAN_MOTION_DDOT": 0,
        "MEAN_MOTION_DOT": 5.77e-06,
        "NORAD_CAT_ID": 35682,
        "OBJECT_ID": "2009-041B",
        "OBJECT_NAME": "DUBAISAT-1",
        "RA_OF_ASC_NODE": 303.5617,
        "REV_AT_EPOCH": 90541
    },
    {
        "ARG_OF_PERICENTER": 228.5944,
        "BSTAR": -9.5906796e-05,
        "CLASSIFICATION_TYPE": "U",
        "ECCENTRICITY": 0.00153989,
        "ELEMENT_SET_NO": 999,
        "EPHEMERIS_TYPE": 0,
        "EPOCH": "2026-06-19T15:07:17.538240",
        "INCLINATION": 98.2323,
        "MEAN_ANOMALY": 131.39,
        "MEAN_MOTION": 13.99663835,
        "MEAN_MOTION_DDOT": 0,
        "MEAN_MOTION_DOT": -1.78e-06,
        "NORAD_CAT_ID": 35931,
        "OBJECT_ID": "2009-051A",
        "OBJECT_NAME": "OCEANSAT-2",
        "RA_OF_ASC_NODE": 157.2379,
        "REV_AT_EPOCH": 87967
    },
    {
        "ARG_OF_PERICENTER": 200.2111,
        "BSTAR": 4.1035065e-05,
        "CLASSIFICATION_TYPE": "U",
        "ECCENTRICITY": 0.00038573,
        "ELEMENT_SET_NO": 999,
        "EPHEMERIS_TYPE": 0,
        "EPOCH": "2026-06-19T12:42:48.140640",
        "INCLINATION": 98.4737,
        "MEAN_ANOMALY": 159.8924,
        "MEAN_MOTION": 14.37900026,
        "MEAN_MOTION_DDOT": 0,
        "MEAN_MOTION_DOT": 8e-07,
        "NORAD_CAT_ID": 35946,
        "OBJECT_ID": "2009-055A",
        "OBJECT_NAME": "WORLDVIEW-2 (WV-2)",
        "RA_OF_ASC_NODE": 243.947,
        "REV_AT_EPOCH": 87598
    },
    {
        "ARG_OF_PERICENTER": 88.15,
        "BSTAR": 6.8385087e-05,
        "CLASSIFICATION_TYPE": "U",
        "ECCENTRICITY": 0.00013232,
        "ELEMENT_SET_NO": 999,
        "EPHEMERIS_TYPE": 0,
        "EPOCH": "2026-06-19T11:35:21.088608",
        "INCLINATION": 98.4425,
        "MEAN_ANOMALY": 271.984,
        "MEAN_MOTION": 14.39773615,
        "MEAN_MOTION_DDOT": 0,
        "MEAN_MOTION_DOT": 1.71e-06,
        "NORAD_CAT_ID": 36036,
        "OBJECT_ID": "2009-059A",
        "OBJECT_NAME": "SMOS",
        "RA_OF_ASC_NODE": 357.7841,
        "REV_AT_EPOCH": 87378
    },
    {
        "ARG_OF_PERICENTER": 34.9411,
        "BSTAR": 5.6942422e-05,
        "CLASSIFICATION_TYPE": "U",
        "ECCENTRICITY": 0.00254422,
        "ELEMENT_SET_NO": 999,
        "EPHEMERIS_TYPE": 0,
        "EPOCH": "2026-06-19T09:22:24.966336",
        "INCLINATION": 98.0069,
        "MEAN_ANOMALY": 325.3463,
        "MEAN_MOTION": 14.78011823,
        "MEAN_MOTION_DDOT": 0,
        "MEAN_MOTION_DOT": 3.6e-06,
        "NORAD_CAT_ID": 36110,
        "OBJECT_ID": "2009-069A",
        "OBJECT_NAME": "YAOGAN-7",
        "RA_OF_ASC_NODE": 56.244,
        "REV_AT_EPOCH": 88995
    },
    {
        "ARG_OF_PERICENTER": 87.74,
        "BSTAR": 1.2414064e-05,
        "CLASSIFICATION_TYPE": "U",
        "ECCENTRICITY": 0.0001891,
        "ELEMENT_SET_NO": 999,
        "EPHEMERIS_TYPE": 0,
        "EPOCH": "2026-06-19T11:55:50.861280",
        "INCLINATION": 97.4451,
        "MEAN_ANOMALY": 272.4051,
        "MEAN_MOTION": 15.19151444,
        "MEAN_MOTION_DDOT": 0,
        "MEAN_MOTION_DOT": 1.94e-06,
        "NORAD_CAT_ID": 36605,
        "OBJECT_ID": "2010-030A",
        "OBJECT_NAME": "TANDEM-X",
        "RA_OF_ASC_NODE": 178.1721,
        "REV_AT_EPOCH": 88699
    },
    {
        "ARG_OF_PERICENTER": 175.9058,
        "BSTAR": 0.00014591389,
        "CLASSIFICATION_TYPE": "U",
        "ECCENTRICITY": 0.00113903,
        "ELEMENT_SET_NO": 999,
        "EPHEMERIS_TYPE": 0,
        "EPOCH": "2026-06-19T13:44:49.085376",
        "INCLINATION": 97.9945,
        "MEAN_ANOMALY": 184.2248,
        "MEAN_MOTION": 14.78665577,
        "MEAN_MOTION_DDOT": 0,
        "MEAN_MOTION_DOT": 1.018e-05,
        "NORAD_CAT_ID": 36795,
        "OBJECT_ID": "2010-035A",
        "OBJECT_NAME": "CARTOSAT-2B",
        "RA_OF_ASC_NODE": 221.1079,
        "REV_AT_EPOCH": 86020
    },
    {
        "ARG_OF_PERICENTER": 87.6085,
        "BSTAR": 0.00021122424,
        "CLASSIFICATION_TYPE": "U",
        "ECCENTRICITY": 0.00017481,
        "ELEMENT_SET_NO": 999,
        "EPHEMERIS_TYPE": 0,
        "EPOCH": "2026-06-19T15:35:27.004704",
        "INCLINATION": 97.8971,
        "MEAN_ANOMALY": 16.44,
        "MEAN_MOTION": 14.85357142,
        "MEAN_MOTION_DDOT": 0,
        "MEAN_MOTION_DOT": 1.763e-05,
        "NORAD_CAT_ID": 36834,
        "OBJECT_ID": "2010-038A",
        "OBJECT_NAME": "YAOGAN-10",
        "RA_OF_ASC_NODE": 194.0345,
        "REV_AT_EPOCH": 85757
    }